{
  "type": "FeatureCollection",
  "metadata": {
    "generator": "VanDrishti AI Spatial Intelligence Engine",
    "tiger_id": "P-032",
    "bandwidth_m": 500,
    "generated_at": "2026-08-17T18:53:05.196Z",
    "core_area_km2": 48.88,
    "total_range_km2": 85.18,
    "unique_camera_stations": 4,
    "total_detections": 9
  },
  "features": [
    {
      "type": "Feature",
      "geometry": {
        "type": "Polygon",
        "coordinates": [
          [
            [
              79.2755191569656,
              21.738533513867562
            ],
            [
              79.27546905786286,
              21.74273062304696
            ],
            [
              79.27647088768599,
              21.745539479774546
            ],
            [
              79.27748943923027,
              21.746949295413543
            ],
            [
              79.27850801010499,
              21.748359105858757
            ],
            [
              79.2795266003122,
              21.749768911108823
            ],
            [
              79.2815804890879,
              21.751189467042522
            ],
            [
              79.28674029460709,
              21.752642192148485
            ],
            [
              79.28777558770119,
              21.752652909959767
            ],
            [
              79.2929686028896,
              21.751307354628892
            ],
            [
              79.35132874903448,
              21.718317161326546
            ],
            [
              79.3523797675644,
              21.716928363821538
            ],
            [
              79.35343076542242,
              21.71553955815068
            ],
            [
              79.35448174261056,
              21.714150744315376
            ],
            [
              79.35553269913083,
              21.71276192231705
            ],
            [
              79.3714518379046,
              21.6779374671672
            ],
            [
              79.37251806024929,
              21.675149388103748
            ],
            [
              79.3725337677283,
              21.673750270876933
            ],
            [
              79.3725494739391,
              21.672351153403582
            ],
            [
              79.37154613883017,
              21.669542767387185
            ],
            [
              79.3695081165787,
              21.666724215040983
            ],
            [
              79.32760080724339,
              21.62153114003121
            ],
            [
              79.32349557071687,
              21.618691283103768
            ],
            [
              79.31625509388718,
              21.618618117151918
            ],
            [
              79.31313580694862,
              21.619985748236218
            ],
            [
              79.31105083276256,
              21.621363828367738
            ],
            [
              79.31000019739488,
              21.622752398352045
            ],
            [
              79.3089332615871,
              21.625540040534865
            ],
            [
              79.2755191569656,
              21.738533513867562
            ]
          ]
        ]
      },
      "properties": {
        "tiger_id": "P-032",
        "type": "range",
        "name": "95% Home Range",
        "utilization": 95,
        "area_km2": 85.18,
        "bandwidth_m": 500,
        "independent_detections": 9
      }
    },
    {
      "type": "Feature",
      "geometry": {
        "type": "Polygon",
        "coordinates": [
          [
            [
              79.28173028192795,
              21.738598105082076
            ],
            [
              79.28166372074465,
              21.744194268437692
            ],
            [
              79.28268231690247,
              21.74560405502407
            ],
            [
              79.28577143523803,
              21.74703529832105
            ],
            [
              79.28680668762068,
              21.747046019570657
            ],
            [
              79.28784194064244,
              21.747056734350473
            ],
            [
              79.2888771943029,
              21.74706744266047
            ],
            [
              79.29199950394207,
              21.74570048122142
            ],
            [
              79.34723638509725,
              21.714078626275864
            ],
            [
              79.34932244715013,
              21.712700169366432
            ],
            [
              79.35038938971597,
              21.70991228674637
            ],
            [
              79.35040533883863,
              21.70851319091215
            ],
            [
              79.32441702154459,
              21.6284953521295
            ],
            [
              79.32238047529039,
              21.6256763028306
            ],
            [
              79.32032783674602,
              21.624256321569508
            ],
            [
              79.31825905014537,
              21.62423540463882
            ],
            [
              79.31617405581065,
              21.625613547579917
            ],
            [
              79.31512343325961,
              21.627002150465103
            ],
            [
              79.28173028192795,
              21.738598105082076
            ]
          ]
        ]
      },
      "properties": {
        "tiger_id": "P-032",
        "type": "core",
        "name": "50% Core Territory",
        "utilization": 50,
        "area_km2": 48.88,
        "bandwidth_m": 500,
        "independent_detections": 9
      }
    },
    {
      "type": "Feature",
      "properties": {
        "tiger_id": "P-032",
        "type": "centroid",
        "latitude": 21.697777,
        "longitude": 79.322424,
        "description": "Probability-weighted activity centroid"
      },
      "geometry": {
        "type": "Point",
        "coordinates": [
          79.322424,
          21.697777
        ]
      }
    },
    {
      "type": "Feature",
      "properties": {
        "tiger_id": "P-032",
        "type": "camera_station_observation",
        "camera_id": "CAM-152",
        "detection_count": 2,
        "latest_timestamp": "2026-08-16T19:42:00",
        "confidence": 90,
        "diel_rhythm": "Nocturnal",
        "badge": "2 captures"
      },
      "geometry": {
        "type": "Point",
        "coordinates": [
          79.3194,
          21.6287
        ]
      }
    },
    {
      "type": "Feature",
      "properties": {
        "tiger_id": "P-032",
        "type": "camera_station_observation",
        "camera_id": "CAM-155",
        "detection_count": 1,
        "latest_timestamp": "2026-08-05T22:10:00",
        "confidence": 92,
        "diel_rhythm": "Nocturnal",
        "badge": "1 capture"
      },
      "geometry": {
        "type": "Point",
        "coordinates": [
          79.3627,
          21.6734
        ]
      }
    },
    {
      "type": "Feature",
      "properties": {
        "tiger_id": "P-032",
        "type": "camera_station_observation",
        "camera_id": "CAM-162",
        "detection_count": 3,
        "latest_timestamp": "2026-08-21T02:00:00",
        "confidence": 95,
        "diel_rhythm": "Nocturnal",
        "badge": "3 captures"
      },
      "geometry": {
        "type": "Point",
        "coordinates": [
          79.3441,
          21.7092
        ]
      }
    },
    {
      "type": "Feature",
      "properties": {
        "tiger_id": "P-032",
        "type": "camera_station_observation",
        "camera_id": "CAM-171",
        "detection_count": 3,
        "latest_timestamp": "2026-08-24T01:10:00",
        "confidence": 89,
        "diel_rhythm": "Nocturnal",
        "badge": "3 captures"
      },
      "geometry": {
        "type": "Point",
        "coordinates": [
          79.2874,
          21.7412
        ]
      }
    }
  ]
}