{
  "type": "FeatureCollection",
  "metadata": {
    "title": "Pench Tiger Reserve — Master Tiger Spatial Intelligence",
    "project": "VanDrishti AI",
    "projection": "EPSG:4326 (WGS 84)",
    "generated_at": "2026-08-17T18:53:05.197Z",
    "total_features": 23,
    "tigers": [
      "P-017",
      "P-021",
      "P-032"
    ]
  },
  "features": [
    {
      "type": "Feature",
      "geometry": {
        "type": "Polygon",
        "coordinates": [
          [
            [
              79.13644279922534,
              21.634724864056817
            ],
            [
              79.13633988662653,
              21.642744028657106
            ],
            [
              79.1387470011987,
              21.6459791472715
            ],
            [
              79.14117476000996,
              21.647610402042627
            ],
            [
              79.14360257482274,
              21.649241624897595
            ],
            [
              79.34117896242645,
              21.717104325786007
            ],
            [
              79.34362872798181,
              21.717128837788476
            ],
            [
              79.346078496996,
              21.717153313600722
            ],
            [
              79.34852826946387,
              21.717177753222497
            ],
            [
              79.35101461393555,
              21.713994150217115
            ],
            [
              79.35350084656622,
              21.71081050180902
            ],
            [
              79.37347670543951,
              21.677319542772743
            ],
            [
              79.37349470467088,
              21.67571551391175
            ],
            [
              79.37351270223625,
              21.674111484726698
            ],
            [
              79.37353069813577,
              21.67250745521759
            ],
            [
              79.37354869236945,
              21.670903425384463
            ],
            [
              79.37356668493743,
              21.669299395227327
            ],
            [
              79.3711537254522,
              21.666067318762018
            ],
            [
              79.32759079557793,
              21.62071693177654
            ],
            [
              79.32516115853879,
              21.619088286404565
            ],
            [
              79.24256730767651,
              21.565299116146665
            ],
            [
              79.23522608840786,
              21.56522150836673
            ],
            [
              79.23029301253739,
              21.568377451486537
            ],
            [
              79.13893200087301,
              21.631544630883138
            ],
            [
              79.13644279922534,
              21.634724864056817
            ]
          ]
        ]
      },
      "properties": {
        "tiger_id": "P-017",
        "type": "range",
        "name": "95% Home Range",
        "utilization": 95,
        "area_km2": 217.93,
        "bandwidth_m": 500,
        "independent_detections": 16
      }
    },
    {
      "type": "Feature",
      "geometry": {
        "type": "Polygon",
        "coordinates": [
          [
            [
              79.14376662495103,
              21.636410914542935
            ],
            [
              79.14127743113079,
              21.639591220033186
            ],
            [
              79.14368461508317,
              21.64282627234337
            ],
            [
              79.14611238543962,
              21.64445745568216
            ],
            [
              79.2462818162337,
              21.663190756905962
            ],
            [
              79.36366210031896,
              21.678827231351157
            ],
            [
              79.36612932839029,
              21.677247347856174
            ],
            [
              79.36861455575519,
              21.674063398721326
            ],
            [
              79.36621971390639,
              21.669227229656883
            ],
            [
              79.3250687381629,
              21.627108286123054
            ],
            [
              79.32020937860749,
              21.623850881562692
            ],
            [
              79.24004275796283,
              21.5716890376798
            ],
            [
              79.237595577283,
              21.57166315997176
            ],
            [
              79.14376662495103,
              21.636410914542935
            ]
          ]
        ]
      },
      "properties": {
        "tiger_id": "P-017",
        "type": "core",
        "name": "50% Core Territory",
        "utilization": 50,
        "area_km2": 135.74,
        "bandwidth_m": 500,
        "independent_detections": 16
      }
    },
    {
      "type": "Feature",
      "properties": {
        "tiger_id": "P-017",
        "type": "centroid",
        "latitude": 21.644635,
        "longitude": 79.268709,
        "description": "Probability-weighted activity centroid"
      },
      "geometry": {
        "type": "Point",
        "coordinates": [
          79.268709,
          21.644635
        ]
      }
    },
    {
      "type": "Feature",
      "properties": {
        "tiger_id": "P-017",
        "type": "camera_station_observation",
        "camera_id": "CAM-127",
        "detection_count": 2,
        "latest_timestamp": "2026-08-15T18:42:00",
        "confidence": 94,
        "diel_rhythm": "Nocturnal",
        "badge": "2 captures"
      },
      "geometry": {
        "type": "Point",
        "coordinates": [
          79.2391,
          21.5748
        ]
      }
    },
    {
      "type": "Feature",
      "properties": {
        "tiger_id": "P-017",
        "type": "camera_station_observation",
        "camera_id": "CAM-132",
        "detection_count": 3,
        "latest_timestamp": "2026-08-16T03:17:00",
        "confidence": 95,
        "diel_rhythm": "Nocturnal",
        "badge": "3 captures"
      },
      "geometry": {
        "type": "Point",
        "coordinates": [
          79.1472,
          21.6394
        ]
      }
    },
    {
      "type": "Feature",
      "properties": {
        "tiger_id": "P-017",
        "type": "camera_station_observation",
        "camera_id": "CAM-143",
        "detection_count": 4,
        "latest_timestamp": "2026-08-22T19:50:00",
        "confidence": 95,
        "diel_rhythm": "Nocturnal",
        "badge": "4 captures"
      },
      "geometry": {
        "type": "Point",
        "coordinates": [
          79.2485,
          21.6578
        ]
      }
    },
    {
      "type": "Feature",
      "properties": {
        "tiger_id": "P-017",
        "type": "camera_station_observation",
        "camera_id": "CAM-152",
        "detection_count": 3,
        "latest_timestamp": "2026-08-20T21:15:00",
        "confidence": 92,
        "diel_rhythm": "Nocturnal",
        "badge": "3 captures"
      },
      "geometry": {
        "type": "Point",
        "coordinates": [
          79.3194,
          21.6287
        ]
      }
    },
    {
      "type": "Feature",
      "properties": {
        "tiger_id": "P-017",
        "type": "camera_station_observation",
        "camera_id": "CAM-155",
        "detection_count": 3,
        "latest_timestamp": "2026-08-17T04:21:00",
        "confidence": 96,
        "diel_rhythm": "Nocturnal",
        "badge": "3 captures"
      },
      "geometry": {
        "type": "Point",
        "coordinates": [
          79.3627,
          21.6734
        ]
      }
    },
    {
      "type": "Feature",
      "properties": {
        "tiger_id": "P-017",
        "type": "camera_station_observation",
        "camera_id": "CAM-162",
        "detection_count": 1,
        "latest_timestamp": "2026-08-19T00:30:00",
        "confidence": 90,
        "diel_rhythm": "Nocturnal",
        "badge": "1 capture"
      },
      "geometry": {
        "type": "Point",
        "coordinates": [
          79.3441,
          21.7092
        ]
      }
    },
    {
      "type": "Feature",
      "geometry": {
        "type": "Polygon",
        "coordinates": [
          [
            [
              79.1369696384301,
              21.63501258345178
            ],
            [
              79.13687062426371,
              21.642730111564628
            ],
            [
              79.13805164047933,
              21.644287081956687
            ],
            [
              79.13923268136223,
              21.64584404548313
            ],
            [
              79.14041374691527,
              21.647401002141965
            ],
            [
              79.20449632083826,
              21.709856724867723
            ],
            [
              79.20688001907878,
              21.71142629712511
            ],
            [
              79.2116666560743,
              21.71302179229023
            ],
            [
              79.21286810024813,
              21.713034756213442
            ],
            [
              79.21406954531955,
              21.713047711434378
            ],
            [
              79.21769290141226,
              21.71154296331717
            ],
            [
              79.22011476222092,
              21.71002522953208
            ],
            [
              79.22133516077955,
              21.708494565323853
            ],
            [
              79.22255553294515,
              21.706963890096667
            ],
            [
              79.22377587872049,
              21.705433203852607
            ],
            [
              79.24814886121881,
              21.577557522880717
            ],
            [
              79.24816742327326,
              21.576013910709108
            ],
            [
              79.24818598366994,
              21.574470298236402
            ],
            [
              79.24820454240896,
              21.572926685462644
            ],
            [
              79.24704137161424,
              21.569826831104077
            ],
            [
              79.24585966835193,
              21.568270582864077
            ],
            [
              79.24347773442715,
              21.56670167583048
            ],
            [
              79.2350759721624,
              21.566612871081222
            ],
            [
              79.16993419917638,
              21.592153855830098
            ],
            [
              79.16631351039833,
              21.59365775476664
            ],
            [
              79.16143381370736,
              21.599778914688695
            ],
            [
              79.1369696384301,
              21.63501258345178
            ]
          ]
        ]
      },
      "properties": {
        "tiger_id": "P-021",
        "type": "range",
        "name": "95% Home Range",
        "utilization": 95,
        "area_km2": 111.86,
        "bandwidth_m": 500,
        "independent_detections": 10
      }
    },
    {
      "type": "Feature",
      "geometry": {
        "type": "Polygon",
        "coordinates": [
          [
            [
              79.14415441680106,
              21.636636722116016
            ],
            [
              79.14291417507255,
              21.639710327127478
            ],
            [
              79.14409523771715,
              21.641267257937642
            ],
            [
              79.14527632502768,
              21.642824181876687
            ],
            [
              79.20815790148532,
              21.70526507794595
            ],
            [
              79.21054157183654,
              21.706834595865825
            ],
            [
              79.21174296391345,
              21.706847564437133
            ],
            [
              79.21294435688843,
              21.70686052430889
            ],
            [
              79.21414575076082,
              21.7068734754811
            ],
            [
              79.21534714553005,
              21.70688641795372
            ],
            [
              79.21656756272354,
              21.70535578995824
            ],
            [
              79.21778795352682,
              21.70382515093987
            ],
            [
              79.21780695887439,
              21.70228158755516
            ],
            [
              79.21782596253034,
              21.700738023867395
            ],
            [
              79.2178449644948,
              21.69919445987661
            ],
            [
              79.17944101449396,
              21.599976937421197
            ],
            [
              79.1782598526347,
              21.598420247494097
            ],
            [
              79.17467779791122,
              21.596837229641345
            ],
            [
              79.17227688408285,
              21.596810874004923
            ],
            [
              79.16865609560634,
              21.59831481667625
            ],
            [
              79.16743619104751,
              21.59984513855822
            ],
            [
              79.14415441680106,
              21.636636722116016
            ]
          ]
        ]
      },
      "properties": {
        "tiger_id": "P-021",
        "type": "core",
        "name": "50% Core Territory",
        "utilization": 50,
        "area_km2": 39.46,
        "bandwidth_m": 500,
        "independent_detections": 10
      }
    },
    {
      "type": "Feature",
      "properties": {
        "tiger_id": "P-021",
        "type": "centroid",
        "latitude": 21.636538,
        "longitude": 79.186317,
        "description": "Probability-weighted activity centroid"
      },
      "geometry": {
        "type": "Point",
        "coordinates": [
          79.186317,
          21.636538
        ]
      }
    },
    {
      "type": "Feature",
      "properties": {
        "tiger_id": "P-021",
        "type": "camera_station_observation",
        "camera_id": "CAM-118",
        "detection_count": 4,
        "latest_timestamp": "2026-08-20T00:40:00",
        "confidence": 93,
        "diel_rhythm": "Nocturnal",
        "badge": "4 captures"
      },
      "geometry": {
        "type": "Point",
        "coordinates": [
          79.1734,
          21.6032
        ]
      }
    },
    {
      "type": "Feature",
      "properties": {
        "tiger_id": "P-021",
        "type": "camera_station_observation",
        "camera_id": "CAM-132",
        "detection_count": 2,
        "latest_timestamp": "2026-08-23T22:20:00",
        "confidence": 94,
        "diel_rhythm": "Nocturnal",
        "badge": "2 captures"
      },
      "geometry": {
        "type": "Point",
        "coordinates": [
          79.1472,
          21.6394
        ]
      }
    },
    {
      "type": "Feature",
      "properties": {
        "tiger_id": "P-021",
        "type": "camera_station_observation",
        "camera_id": "CAM-179",
        "detection_count": 3,
        "latest_timestamp": "2026-08-24T03:10:00",
        "confidence": 91,
        "diel_rhythm": "Nocturnal",
        "badge": "3 captures"
      },
      "geometry": {
        "type": "Point",
        "coordinates": [
          79.2126,
          21.7018
        ]
      }
    },
    {
      "type": "Feature",
      "properties": {
        "tiger_id": "P-021",
        "type": "camera_station_observation",
        "camera_id": "CAM-127",
        "detection_count": 1,
        "latest_timestamp": "2026-08-15T02:10:00",
        "confidence": 92,
        "diel_rhythm": "Nocturnal",
        "badge": "1 capture"
      },
      "geometry": {
        "type": "Point",
        "coordinates": [
          79.2391,
          21.5748
        ]
      }
    },
    {
      "type": "Feature",
      "geometry": {
        "type": "Polygon",
        "coordinates": [
          [
            [
              79.2755191569656,
              21.738533513867562
            ],
            [
              79.27546905786286,
              21.74273062304696
            ],
            [
              79.27647088768599,
              21.745539479774546
            ],
            [
              79.27748943923027,
              21.746949295413543
            ],
            [
              79.27850801010499,
              21.748359105858757
            ],
            [
              79.2795266003122,
              21.749768911108823
            ],
            [
              79.2815804890879,
              21.751189467042522
            ],
            [
              79.28674029460709,
              21.752642192148485
            ],
            [
              79.28777558770119,
              21.752652909959767
            ],
            [
              79.2929686028896,
              21.751307354628892
            ],
            [
              79.35132874903448,
              21.718317161326546
            ],
            [
              79.3523797675644,
              21.716928363821538
            ],
            [
              79.35343076542242,
              21.71553955815068
            ],
            [
              79.35448174261056,
              21.714150744315376
            ],
            [
              79.35553269913083,
              21.71276192231705
            ],
            [
              79.3714518379046,
              21.6779374671672
            ],
            [
              79.37251806024929,
              21.675149388103748
            ],
            [
              79.3725337677283,
              21.673750270876933
            ],
            [
              79.3725494739391,
              21.672351153403582
            ],
            [
              79.37154613883017,
              21.669542767387185
            ],
            [
              79.3695081165787,
              21.666724215040983
            ],
            [
              79.32760080724339,
              21.62153114003121
            ],
            [
              79.32349557071687,
              21.618691283103768
            ],
            [
              79.31625509388718,
              21.618618117151918
            ],
            [
              79.31313580694862,
              21.619985748236218
            ],
            [
              79.31105083276256,
              21.621363828367738
            ],
            [
              79.31000019739488,
              21.622752398352045
            ],
            [
              79.3089332615871,
              21.625540040534865
            ],
            [
              79.2755191569656,
              21.738533513867562
            ]
          ]
        ]
      },
      "properties": {
        "tiger_id": "P-032",
        "type": "range",
        "name": "95% Home Range",
        "utilization": 95,
        "area_km2": 85.18,
        "bandwidth_m": 500,
        "independent_detections": 9
      }
    },
    {
      "type": "Feature",
      "geometry": {
        "type": "Polygon",
        "coordinates": [
          [
            [
              79.28173028192795,
              21.738598105082076
            ],
            [
              79.28166372074465,
              21.744194268437692
            ],
            [
              79.28268231690247,
              21.74560405502407
            ],
            [
              79.28577143523803,
              21.74703529832105
            ],
            [
              79.28680668762068,
              21.747046019570657
            ],
            [
              79.28784194064244,
              21.747056734350473
            ],
            [
              79.2888771943029,
              21.74706744266047
            ],
            [
              79.29199950394207,
              21.74570048122142
            ],
            [
              79.34723638509725,
              21.714078626275864
            ],
            [
              79.34932244715013,
              21.712700169366432
            ],
            [
              79.35038938971597,
              21.70991228674637
            ],
            [
              79.35040533883863,
              21.70851319091215
            ],
            [
              79.32441702154459,
              21.6284953521295
            ],
            [
              79.32238047529039,
              21.6256763028306
            ],
            [
              79.32032783674602,
              21.624256321569508
            ],
            [
              79.31825905014537,
              21.62423540463882
            ],
            [
              79.31617405581065,
              21.625613547579917
            ],
            [
              79.31512343325961,
              21.627002150465103
            ],
            [
              79.28173028192795,
              21.738598105082076
            ]
          ]
        ]
      },
      "properties": {
        "tiger_id": "P-032",
        "type": "core",
        "name": "50% Core Territory",
        "utilization": 50,
        "area_km2": 48.88,
        "bandwidth_m": 500,
        "independent_detections": 9
      }
    },
    {
      "type": "Feature",
      "properties": {
        "tiger_id": "P-032",
        "type": "centroid",
        "latitude": 21.697777,
        "longitude": 79.322424,
        "description": "Probability-weighted activity centroid"
      },
      "geometry": {
        "type": "Point",
        "coordinates": [
          79.322424,
          21.697777
        ]
      }
    },
    {
      "type": "Feature",
      "properties": {
        "tiger_id": "P-032",
        "type": "camera_station_observation",
        "camera_id": "CAM-152",
        "detection_count": 2,
        "latest_timestamp": "2026-08-16T19:42:00",
        "confidence": 90,
        "diel_rhythm": "Nocturnal",
        "badge": "2 captures"
      },
      "geometry": {
        "type": "Point",
        "coordinates": [
          79.3194,
          21.6287
        ]
      }
    },
    {
      "type": "Feature",
      "properties": {
        "tiger_id": "P-032",
        "type": "camera_station_observation",
        "camera_id": "CAM-155",
        "detection_count": 1,
        "latest_timestamp": "2026-08-05T22:10:00",
        "confidence": 92,
        "diel_rhythm": "Nocturnal",
        "badge": "1 capture"
      },
      "geometry": {
        "type": "Point",
        "coordinates": [
          79.3627,
          21.6734
        ]
      }
    },
    {
      "type": "Feature",
      "properties": {
        "tiger_id": "P-032",
        "type": "camera_station_observation",
        "camera_id": "CAM-162",
        "detection_count": 3,
        "latest_timestamp": "2026-08-21T02:00:00",
        "confidence": 95,
        "diel_rhythm": "Nocturnal",
        "badge": "3 captures"
      },
      "geometry": {
        "type": "Point",
        "coordinates": [
          79.3441,
          21.7092
        ]
      }
    },
    {
      "type": "Feature",
      "properties": {
        "tiger_id": "P-032",
        "type": "camera_station_observation",
        "camera_id": "CAM-171",
        "detection_count": 3,
        "latest_timestamp": "2026-08-24T01:10:00",
        "confidence": 89,
        "diel_rhythm": "Nocturnal",
        "badge": "3 captures"
      },
      "geometry": {
        "type": "Point",
        "coordinates": [
          79.2874,
          21.7412
        ]
      }
    }
  ]
}