{
  "type": "FeatureCollection",
  "metadata": {
    "generator": "VanDrishti AI Spatial Intelligence Engine",
    "tiger_id": "P-021",
    "bandwidth_m": 500,
    "generated_at": "2026-08-17T18:53:05.169Z",
    "core_area_km2": 39.46,
    "total_range_km2": 111.86,
    "unique_camera_stations": 4,
    "total_detections": 10
  },
  "features": [
    {
      "type": "Feature",
      "geometry": {
        "type": "Polygon",
        "coordinates": [
          [
            [
              79.1369696384301,
              21.63501258345178
            ],
            [
              79.13687062426371,
              21.642730111564628
            ],
            [
              79.13805164047933,
              21.644287081956687
            ],
            [
              79.13923268136223,
              21.64584404548313
            ],
            [
              79.14041374691527,
              21.647401002141965
            ],
            [
              79.20449632083826,
              21.709856724867723
            ],
            [
              79.20688001907878,
              21.71142629712511
            ],
            [
              79.2116666560743,
              21.71302179229023
            ],
            [
              79.21286810024813,
              21.713034756213442
            ],
            [
              79.21406954531955,
              21.713047711434378
            ],
            [
              79.21769290141226,
              21.71154296331717
            ],
            [
              79.22011476222092,
              21.71002522953208
            ],
            [
              79.22133516077955,
              21.708494565323853
            ],
            [
              79.22255553294515,
              21.706963890096667
            ],
            [
              79.22377587872049,
              21.705433203852607
            ],
            [
              79.24814886121881,
              21.577557522880717
            ],
            [
              79.24816742327326,
              21.576013910709108
            ],
            [
              79.24818598366994,
              21.574470298236402
            ],
            [
              79.24820454240896,
              21.572926685462644
            ],
            [
              79.24704137161424,
              21.569826831104077
            ],
            [
              79.24585966835193,
              21.568270582864077
            ],
            [
              79.24347773442715,
              21.56670167583048
            ],
            [
              79.2350759721624,
              21.566612871081222
            ],
            [
              79.16993419917638,
              21.592153855830098
            ],
            [
              79.16631351039833,
              21.59365775476664
            ],
            [
              79.16143381370736,
              21.599778914688695
            ],
            [
              79.1369696384301,
              21.63501258345178
            ]
          ]
        ]
      },
      "properties": {
        "tiger_id": "P-021",
        "type": "range",
        "name": "95% Home Range",
        "utilization": 95,
        "area_km2": 111.86,
        "bandwidth_m": 500,
        "independent_detections": 10
      }
    },
    {
      "type": "Feature",
      "geometry": {
        "type": "Polygon",
        "coordinates": [
          [
            [
              79.14415441680106,
              21.636636722116016
            ],
            [
              79.14291417507255,
              21.639710327127478
            ],
            [
              79.14409523771715,
              21.641267257937642
            ],
            [
              79.14527632502768,
              21.642824181876687
            ],
            [
              79.20815790148532,
              21.70526507794595
            ],
            [
              79.21054157183654,
              21.706834595865825
            ],
            [
              79.21174296391345,
              21.706847564437133
            ],
            [
              79.21294435688843,
              21.70686052430889
            ],
            [
              79.21414575076082,
              21.7068734754811
            ],
            [
              79.21534714553005,
              21.70688641795372
            ],
            [
              79.21656756272354,
              21.70535578995824
            ],
            [
              79.21778795352682,
              21.70382515093987
            ],
            [
              79.21780695887439,
              21.70228158755516
            ],
            [
              79.21782596253034,
              21.700738023867395
            ],
            [
              79.2178449644948,
              21.69919445987661
            ],
            [
              79.17944101449396,
              21.599976937421197
            ],
            [
              79.1782598526347,
              21.598420247494097
            ],
            [
              79.17467779791122,
              21.596837229641345
            ],
            [
              79.17227688408285,
              21.596810874004923
            ],
            [
              79.16865609560634,
              21.59831481667625
            ],
            [
              79.16743619104751,
              21.59984513855822
            ],
            [
              79.14415441680106,
              21.636636722116016
            ]
          ]
        ]
      },
      "properties": {
        "tiger_id": "P-021",
        "type": "core",
        "name": "50% Core Territory",
        "utilization": 50,
        "area_km2": 39.46,
        "bandwidth_m": 500,
        "independent_detections": 10
      }
    },
    {
      "type": "Feature",
      "properties": {
        "tiger_id": "P-021",
        "type": "centroid",
        "latitude": 21.636538,
        "longitude": 79.186317,
        "description": "Probability-weighted activity centroid"
      },
      "geometry": {
        "type": "Point",
        "coordinates": [
          79.186317,
          21.636538
        ]
      }
    },
    {
      "type": "Feature",
      "properties": {
        "tiger_id": "P-021",
        "type": "camera_station_observation",
        "camera_id": "CAM-118",
        "detection_count": 4,
        "latest_timestamp": "2026-08-20T00:40:00",
        "confidence": 93,
        "diel_rhythm": "Nocturnal",
        "badge": "4 captures"
      },
      "geometry": {
        "type": "Point",
        "coordinates": [
          79.1734,
          21.6032
        ]
      }
    },
    {
      "type": "Feature",
      "properties": {
        "tiger_id": "P-021",
        "type": "camera_station_observation",
        "camera_id": "CAM-132",
        "detection_count": 2,
        "latest_timestamp": "2026-08-23T22:20:00",
        "confidence": 94,
        "diel_rhythm": "Nocturnal",
        "badge": "2 captures"
      },
      "geometry": {
        "type": "Point",
        "coordinates": [
          79.1472,
          21.6394
        ]
      }
    },
    {
      "type": "Feature",
      "properties": {
        "tiger_id": "P-021",
        "type": "camera_station_observation",
        "camera_id": "CAM-179",
        "detection_count": 3,
        "latest_timestamp": "2026-08-24T03:10:00",
        "confidence": 91,
        "diel_rhythm": "Nocturnal",
        "badge": "3 captures"
      },
      "geometry": {
        "type": "Point",
        "coordinates": [
          79.2126,
          21.7018
        ]
      }
    },
    {
      "type": "Feature",
      "properties": {
        "tiger_id": "P-021",
        "type": "camera_station_observation",
        "camera_id": "CAM-127",
        "detection_count": 1,
        "latest_timestamp": "2026-08-15T02:10:00",
        "confidence": 92,
        "diel_rhythm": "Nocturnal",
        "badge": "1 capture"
      },
      "geometry": {
        "type": "Point",
        "coordinates": [
          79.2391,
          21.5748
        ]
      }
    }
  ]
}